{"fetched_at":"2026-07-12T07:15:56.257Z","source":"https://celestrak.org/NORAD/elements/gp.php?NAME=RCM&FORMAT=JSON","constellation":"rcm","records":[{"OBJECT_NAME":"RCM-1","OBJECT_ID":"2019-033A","EPOCH":"2026-07-12T00:15:26.292672","CLASSIFICATION_TYPE":"U","MEAN_MOTION":14.92591264,"ECCENTRICITY":0.00015389,"INCLINATION":97.7602,"RA_OF_ASC_NODE":200.1065,"ARG_OF_PERICENTER":92.559,"MEAN_ANOMALY":292.282,"EPHEMERIS_TYPE":0,"NORAD_CAT_ID":44322,"ELEMENT_SET_NO":999,"REV_AT_EPOCH":38578,"BSTAR":0.000026321538,"MEAN_MOTION_DOT":0.00000215,"MEAN_MOTION_DDOT":0},{"OBJECT_NAME":"RCM-3","OBJECT_ID":"2019-033B","EPOCH":"2026-07-11T23:04:50.613888","CLASSIFICATION_TYPE":"U","MEAN_MOTION":14.92588874,"ECCENTRICITY":0.00015047,"INCLINATION":97.7602,"RA_OF_ASC_NODE":200.1525,"ARG_OF_PERICENTER":89.3712,"MEAN_ANOMALY":270.768,"EPHEMERIS_TYPE":0,"NORAD_CAT_ID":44323,"ELEMENT_SET_NO":999,"REV_AT_EPOCH":38579,"BSTAR":0.000020330899,"MEAN_MOTION_DOT":0.00000153,"MEAN_MOTION_DDOT":0},{"OBJECT_NAME":"RCM-2","OBJECT_ID":"2019-033C","EPOCH":"2026-07-11T23:36:48.972096","CLASSIFICATION_TYPE":"U","MEAN_MOTION":14.9259003,"ECCENTRICITY":0.00014871,"INCLINATION":97.7601,"RA_OF_ASC_NODE":200.1248,"ARG_OF_PERICENTER":91.3714,"MEAN_ANOMALY":268.7675,"EPHEMERIS_TYPE":0,"NORAD_CAT_ID":44324,"ELEMENT_SET_NO":999,"REV_AT_EPOCH":38578,"BSTAR":0.000001230905,"MEAN_MOTION_DOT":-4.3e-7,"MEAN_MOTION_DDOT":0}]}
