RCM-1                   
1 44322U 19033A   26193.01072098  .00000215  00000+0  26322-4 0  9995
2 44322  97.7602 200.1065 0001538  92.5590 292.2820 14.92591264385788
RCM-3                   
1 44323U 19033B   26192.96169692  .00000153  00000+0  20331-4 0  9991
2 44323  97.7602 200.1525 0001504  89.3712 270.7680 14.92588874385792
RCM-2                   
1 44324U 19033C   26192.98390014 -.00000043  00000+0  12309-5 0  9994
2 44324  97.7601 200.1248 0001487  91.3714 268.7675 14.92590030385786
